SL-16 R/B               
1 25400U 98043G   26053.15531448  .00000063  00000+0  45474-4 0  9998
2 25400  98.8228   6.4112 0010850  62.1067 298.1210 14.26045755436779
SL-16 R/B               
1 25407U 98045B   26053.17516749  .00000022  00000+0  35117-4 0  9994
2 25407  71.0099 214.1985 0005924  34.1124 326.0379 14.16191258424908
ISS (ZARYA)             
1 25544U 98067A   26053.21713984  .00012819  00000+0  24697-3 0  9992
2 25544  51.6319 148.8375 0008515 121.3250 238.8573 15.48201707553932
CZ-4B R/B               
1 25732U 99025C   26053.06812697  .00000020  00000+0  30204-4 0  9993
2 25732  98.6661  97.7173 0037580  31.3870 358.6141 14.18261916385953
OKEAN-O                 
1 25860U 99039A   26053.17294284  .00000542  00000+0  78003-4 0  9996
2 25860  97.9478 113.2195 0001652  77.8465 282.2932 14.80307569432099
SL-16 R/B               
1 25861U 99039B   26053.16745122  .00000445  00000+0  63344-4 0  9992
2 25861  98.0002 112.2845 0013689 311.1547  48.8484 14.81707293434565
DELTA 2 R/B             
1 25876U 99041E   26053.00881622  .00001435  00000+0  26856-3 0  9996
2 25876  51.7661   3.9036 0502221 302.1292  53.1836 14.11776786360810
HELIOS 1B               
1 25977U 99064A   26053.24393106  .00001791  00000+0  20339-3 0  9999
2 25977  98.1712 315.0324 0002401  96.0302 264.1186 14.87628980682967
TERRA                   
1 25994U 99068A   26053.22973004  .00000434  00000+0  97522-4 0  9993
2 25994  97.9628 107.2525 0001604 194.2349 187.6772 14.60996596392824
SL-16 R/B               
1 26070U 00006B   26053.25719840  .00000136  00000+0  93499-4 0  9990
2 26070  71.0021 130.2879 0017762 211.4769 148.5293 14.15818946346373
TITAN 4B R/B            
1 26474U 00047B   26053.25758586  .00003319  00000+0  21213-3 0  9993
2 26474  67.9878  83.9012 0037652  54.0167 306.4463 15.09409755390585
ENVISAT                 
1 27386U 02009A   26052.81968631  .00000108  00000+0  48888-4 0  9992
2 27386  98.3701   6.7976 0001349  86.5831 289.4333 14.39030351256890
