CCSDS_OMM_VERS = 2.0
CREATION_DATE  = 
ORIGINATOR     = 

OBJECT_NAME    = SL-16 R/B
OBJECT_ID      = 1998-043G
CENTER_NAME    = EARTH
REF_FRAME      = TEME
TIME_SYSTEM    = UTC
MEAN_ELEMENT_THEORY = SGP/SGP4

EPOCH          = 2026-02-22T03:43:39.171072
MEAN_MOTION    = 14.26045755
ECCENTRICITY   = .001085
INCLINATION    = 98.8228
RA_OF_ASC_NODE = 6.4112
ARG_OF_PERICENTER = 62.1067
MEAN_ANOMALY   = 298.1210

EPHEMERIS_TYPE = 0
CLASSIFICATION_TYPE = U
NORAD_CAT_ID   = 25400
ELEMENT_SET_NO = 999
REV_AT_EPOCH   = 43677
BSTAR          = .45474E-4
MEAN_MOTION_DOT = .63E-6
MEAN_MOTION_DDOT = 0

CCSDS_OMM_VERS = 2.0
CREATION_DATE  = 
ORIGINATOR     = 

OBJECT_NAME    = SL-16 R/B
OBJECT_ID      = 1998-045B
CENTER_NAME    = EARTH
REF_FRAME      = TEME
TIME_SYSTEM    = UTC
MEAN_ELEMENT_THEORY = SGP/SGP4

EPOCH          = 2026-02-22T04:12:14.471136
MEAN_MOTION    = 14.16191258
ECCENTRICITY   = .0005924
INCLINATION    = 71.0099
RA_OF_ASC_NODE = 214.1985
ARG_OF_PERICENTER = 34.1124
MEAN_ANOMALY   = 326.0379

EPHEMERIS_TYPE = 0
CLASSIFICATION_TYPE = U
NORAD_CAT_ID   = 25407
ELEMENT_SET_NO = 999
REV_AT_EPOCH   = 42490
BSTAR          = .35117E-4
MEAN_MOTION_DOT = .22E-6
MEAN_MOTION_DDOT = 0

CCSDS_OMM_VERS = 2.0
CREATION_DATE  = 
ORIGINATOR     = 

OBJECT_NAME    = ISS (ZARYA)
OBJECT_ID      = 1998-067A
CENTER_NAME    = EARTH
REF_FRAME      = TEME
TIME_SYSTEM    = UTC
MEAN_ELEMENT_THEORY = SGP/SGP4

EPOCH          = 2026-02-22T05:12:40.882176
MEAN_MOTION    = 15.48201707
ECCENTRICITY   = .0008515
INCLINATION    = 51.6319
RA_OF_ASC_NODE = 148.8375
ARG_OF_PERICENTER = 121.3250
MEAN_ANOMALY   = 238.8573

EPHEMERIS_TYPE = 0
CLASSIFICATION_TYPE = U
NORAD_CAT_ID   = 25544
ELEMENT_SET_NO = 999
REV_AT_EPOCH   = 55393
BSTAR          = .24697E-3
MEAN_MOTION_DOT = .12819E-3
MEAN_MOTION_DDOT = 0

CCSDS_OMM_VERS = 2.0
CREATION_DATE  = 
ORIGINATOR     = 

OBJECT_NAME    = CZ-4B R/B
OBJECT_ID      = 1999-025C
CENTER_NAME    = EARTH
REF_FRAME      = TEME
TIME_SYSTEM    = UTC
MEAN_ELEMENT_THEORY = SGP/SGP4

EPOCH          = 2026-02-22T01:38:06.170208
MEAN_MOTION    = 14.18261916
ECCENTRICITY   = .003758
INCLINATION    = 98.6661
RA_OF_ASC_NODE = 97.7173
ARG_OF_PERICENTER = 31.3870
MEAN_ANOMALY   = 358.6141

EPHEMERIS_TYPE = 0
CLASSIFICATION_TYPE = U
NORAD_CAT_ID   = 25732
ELEMENT_SET_NO = 999
REV_AT_EPOCH   = 38595
BSTAR          = .30204E-4
MEAN_MOTION_DOT = .2E-6
MEAN_MOTION_DDOT = 0

CCSDS_OMM_VERS = 2.0
CREATION_DATE  = 
ORIGINATOR     = 

OBJECT_NAME    = OKEAN-O
OBJECT_ID      = 1999-039A
CENTER_NAME    = EARTH
REF_FRAME      = TEME
TIME_SYSTEM    = UTC
MEAN_ELEMENT_THEORY = SGP/SGP4

EPOCH          = 2026-02-22T04:09:02.261376
MEAN_MOTION    = 14.80307569
ECCENTRICITY   = .0001652
INCLINATION    = 97.9478
RA_OF_ASC_NODE = 113.2195
ARG_OF_PERICENTER = 77.8465
MEAN_ANOMALY   = 282.2932

EPHEMERIS_TYPE = 0
CLASSIFICATION_TYPE = U
NORAD_CAT_ID   = 25860
ELEMENT_SET_NO = 999
REV_AT_EPOCH   = 43209
BSTAR          = .78003E-4
MEAN_MOTION_DOT = .542E-5
MEAN_MOTION_DDOT = 0

CCSDS_OMM_VERS = 2.0
CREATION_DATE  = 
ORIGINATOR     = 

OBJECT_NAME    = SL-16 R/B
OBJECT_ID      = 1999-039B
CENTER_NAME    = EARTH
REF_FRAME      = TEME
TIME_SYSTEM    = UTC
MEAN_ELEMENT_THEORY = SGP/SGP4

EPOCH          = 2026-02-22T04:01:07.785408
MEAN_MOTION    = 14.81707293
ECCENTRICITY   = .0013689
INCLINATION    = 98.0002
RA_OF_ASC_NODE = 112.2845
ARG_OF_PERICENTER = 311.1547
MEAN_ANOMALY   = 48.8484

EPHEMERIS_TYPE = 0
CLASSIFICATION_TYPE = U
NORAD_CAT_ID   = 25861
ELEMENT_SET_NO = 999
REV_AT_EPOCH   = 43456
BSTAR          = .63344E-4
MEAN_MOTION_DOT = .445E-5
MEAN_MOTION_DDOT = 0

CCSDS_OMM_VERS = 2.0
CREATION_DATE  = 
ORIGINATOR     = 

OBJECT_NAME    = DELTA 2 R/B
OBJECT_ID      = 1999-041E
CENTER_NAME    = EARTH
REF_FRAME      = TEME
TIME_SYSTEM    = UTC
MEAN_ELEMENT_THEORY = SGP/SGP4

EPOCH          = 2026-02-22T00:12:41.721408
MEAN_MOTION    = 14.11776786
ECCENTRICITY   = .0502221
INCLINATION    = 51.7661
RA_OF_ASC_NODE = 3.9036
ARG_OF_PERICENTER = 302.1292
MEAN_ANOMALY   = 53.1836

EPHEMERIS_TYPE = 0
CLASSIFICATION_TYPE = U
NORAD_CAT_ID   = 25876
ELEMENT_SET_NO = 999
REV_AT_EPOCH   = 36081
BSTAR          = .26856E-3
MEAN_MOTION_DOT = .1435E-4
MEAN_MOTION_DDOT = 0

CCSDS_OMM_VERS = 2.0
CREATION_DATE  = 
ORIGINATOR     = 

OBJECT_NAME    = HELIOS 1B
OBJECT_ID      = 1999-064A
CENTER_NAME    = EARTH
REF_FRAME      = TEME
TIME_SYSTEM    = UTC
MEAN_ELEMENT_THEORY = SGP/SGP4

EPOCH          = 2026-02-22T05:51:15.643584
MEAN_MOTION    = 14.87628980
ECCENTRICITY   = .0002401
INCLINATION    = 98.1712
RA_OF_ASC_NODE = 315.0324
ARG_OF_PERICENTER = 96.0302
MEAN_ANOMALY   = 264.1186

EPHEMERIS_TYPE = 0
CLASSIFICATION_TYPE = U
NORAD_CAT_ID   = 25977
ELEMENT_SET_NO = 999
REV_AT_EPOCH   = 68296
BSTAR          = .20339E-3
MEAN_MOTION_DOT = .1791E-4
MEAN_MOTION_DDOT = 0

CCSDS_OMM_VERS = 2.0
CREATION_DATE  = 
ORIGINATOR     = 

OBJECT_NAME    = TERRA
OBJECT_ID      = 1999-068A
CENTER_NAME    = EARTH
REF_FRAME      = TEME
TIME_SYSTEM    = UTC
MEAN_ELEMENT_THEORY = SGP/SGP4

EPOCH          = 2026-02-22T05:30:48.675456
MEAN_MOTION    = 14.60996596
ECCENTRICITY   = .0001604
INCLINATION    = 97.9628
RA_OF_ASC_NODE = 107.2525
ARG_OF_PERICENTER = 194.2349
MEAN_ANOMALY   = 187.6772

EPHEMERIS_TYPE = 0
CLASSIFICATION_TYPE = U
NORAD_CAT_ID   = 25994
ELEMENT_SET_NO = 999
REV_AT_EPOCH   = 39282
BSTAR          = .97522E-4
MEAN_MOTION_DOT = .434E-5
MEAN_MOTION_DDOT = 0

CCSDS_OMM_VERS = 2.0
CREATION_DATE  = 
ORIGINATOR     = 

OBJECT_NAME    = SL-16 R/B
OBJECT_ID      = 2000-006B
CENTER_NAME    = EARTH
REF_FRAME      = TEME
TIME_SYSTEM    = UTC
MEAN_ELEMENT_THEORY = SGP/SGP4

EPOCH          = 2026-02-22T06:10:21.941760
MEAN_MOTION    = 14.15818946
ECCENTRICITY   = .0017762
INCLINATION    = 71.0021
RA_OF_ASC_NODE = 130.2879
ARG_OF_PERICENTER = 211.4769
MEAN_ANOMALY   = 148.5293

EPHEMERIS_TYPE = 0
CLASSIFICATION_TYPE = U
NORAD_CAT_ID   = 26070
ELEMENT_SET_NO = 999
REV_AT_EPOCH   = 34637
BSTAR          = .93499E-4
MEAN_MOTION_DOT = .136E-5
MEAN_MOTION_DDOT = 0

CCSDS_OMM_VERS = 2.0
CREATION_DATE  = 
ORIGINATOR     = 

OBJECT_NAME    = TITAN 4B R/B
OBJECT_ID      = 2000-047B
CENTER_NAME    = EARTH
REF_FRAME      = TEME
TIME_SYSTEM    = UTC
MEAN_ELEMENT_THEORY = SGP/SGP4

EPOCH          = 2026-02-22T06:10:55.418304
MEAN_MOTION    = 15.09409755
ECCENTRICITY   = .0037652
INCLINATION    = 67.9878
RA_OF_ASC_NODE = 83.9012
ARG_OF_PERICENTER = 54.0167
MEAN_ANOMALY   = 306.4463

EPHEMERIS_TYPE = 0
CLASSIFICATION_TYPE = U
NORAD_CAT_ID   = 26474
ELEMENT_SET_NO = 999
REV_AT_EPOCH   = 39058
BSTAR          = .21213E-3
MEAN_MOTION_DOT = .3319E-4
MEAN_MOTION_DDOT = 0

CCSDS_OMM_VERS = 2.0
CREATION_DATE  = 
ORIGINATOR     = 

OBJECT_NAME    = ENVISAT
OBJECT_ID      = 2002-009A
CENTER_NAME    = EARTH
REF_FRAME      = TEME
TIME_SYSTEM    = UTC
MEAN_ELEMENT_THEORY = SGP/SGP4

EPOCH          = 2026-02-21T19:40:20.897184
MEAN_MOTION    = 14.39030351
ECCENTRICITY   = .00013493
INCLINATION    = 98.3701
RA_OF_ASC_NODE = 6.7976
ARG_OF_PERICENTER = 86.5831
MEAN_ANOMALY   = 289.4333

EPHEMERIS_TYPE = 0
CLASSIFICATION_TYPE = U
NORAD_CAT_ID   = 27386
ELEMENT_SET_NO = 999
REV_AT_EPOCH   = 25689
BSTAR          = .48888172E-4
MEAN_MOTION_DOT = .108E-5
MEAN_MOTION_DDOT = 0

